{"type": "FeatureCollection", "features": [ {"type": "Feature", "properties": {"norad_id": 39574, "name": "GPM-CORE", "group": "resource", "lat": 9.962402805930136, "lon": -114.68900430199402, "alt_km": 432.93991967904094, "timestamp": "2025-12-04T09:47:37.179693+00:00", "meta": {"OBJECT_NAME": "GPM-CORE", "OBJECT_ID": "2014-009C", "EPOCH": "2025-12-03T22:52:22.994688", "MEAN_MOTION": 15.45201391, "ECCENTRICITY": 0.00105449, "INCLINATION": 64.9754, "RA_OF_ASC_NODE": 242.1286, "ARG_OF_PERICENTER": 268.8616, "MEAN_ANOMALY": 91.1317, "EPHEMERIS_TYPE": 0, "CLASSIFICATION_TYPE": "U", "NORAD_CAT_ID": 39574, "ELEMENT_SET_NO": 999, "REV_AT_EPOCH": 66765, "BSTAR": 0.00054190855, "MEAN_MOTION_DOT": 0.00025766, "MEAN_MOTION_DDOT": 0}, "tle": {"line1": "1 39574U 14009C   25337.95304392  .00025766  00000+0  54191-3 0  9995", "line2": "2 39574  64.9754 242.1286 0010544 268.8616  91.1317 15.45201391667654"}}, "geometry": {"type": "Point", "coordinates": [-114.68900430199402, 9.962402805930136]}}, {"type": "Feature", "properties": {"norad_id": 39634, "name": "SENTINEL-1A", "group": "resource", "lat": -56.52886462601359, "lon": -3.6610986106828807, "alt_km": 703.5371966626326, "timestamp": "2025-12-04T09:47:37.179704+00:00", "meta": {"OBJECT_NAME": "SENTINEL-1A", "OBJECT_ID": "2014-016A", "EPOCH": "2025-12-04T00:10:55.896960", "MEAN_MOTION": 14.59201554, "ECCENTRICITY": 0.00012452, "INCLINATION": 98.1805, "RA_OF_ASC_NODE": 343.3779, "ARG_OF_PERICENTER": 88.6351, "MEAN_ANOMALY": 271.4991, "EPHEMERIS_TYPE": 0, "CLASSIFICATION_TYPE": "U", "NORAD_CAT_ID": 39634, "ELEMENT_SET_NO": 999, "REV_AT_EPOCH": 62155, "BSTAR": 5.6408637e-05, "MEAN_MOTION_DOT": 2.2e-06, "MEAN_MOTION_DDOT": 0}, "tle": {"line1": "1 39634U 14016A   25338.00759140  .00000220  00000+0  56409-4 0  9995", "line2": "2 39634  98.1805 343.3779 0001245  88.6351 271.4991 14.59201554621555"}}, "geometry": {"type": "Point", "coordinates": [-3.6610986106828807, -56.52886462601359]}}, {"type": "Feature", "properties": {"norad_id": 39731, "name": "KAZEOSAT 1", "group": "resource", "lat": 68.79274153512726, "lon": 28.27640242637607, "alt_km": 744.3480038258604, "timestamp": "2025-12-04T09:47:37.179714+00:00", "meta": {"OBJECT_NAME": "KAZEOSAT 1", "OBJECT_ID": "2014-024A", "EPOCH": "2025-12-03T23:28:36.111072", "MEAN_MOTION": 14.42054206, "ECCENTRICITY": 0.00010611, "INCLINATION": 98.3444, "RA_OF_ASC_NODE": 50.0819, "ARG_OF_PERICENTER": 99.2308, "MEAN_ANOMALY": 260.9001, "EPHEMERIS_TYPE": 0, "CLASSIFICATION_TYPE": "U", "NORAD_CAT_ID": 39731, "ELEMENT_SET_NO": 999, "REV_AT_EPOCH": 61042, "BSTAR": 0.00014048046, "MEAN_MOTION_DOT": 4.18e-06, "MEAN_MOTION_DDOT": 0}, "tle": {"line1": "1 39731U 14024A   25337.97819573  .00000418  00000+0  14048-3 0  9995", "line2": "2 39731  98.3444  50.0819 0001061  99.2308 260.9001 14.42054206610428"}}, "geometry": {"type": "Point", "coordinates": [28.27640242637607, 68.79274153512726]}}, {"type": "Feature", "properties": {"norad_id": 39766, "name": "ALOS-2", "group": "resource", "lat": -80.83706283199952, "lon": 133.08026855054666, "alt_km": 639.4311833217698, "timestamp": "2025-12-04T09:47:37.179724+00:00", "meta": {"OBJECT_NAME": "ALOS-2", "OBJECT_ID": "2014-029A", "EPOCH": "2025-12-03T22:49:00.657120", "MEAN_MOTION": 14.79455072, "ECCENTRICITY": 0.00015277, "INCLINATION": 97.9237, "RA_OF_ASC_NODE": 72.9222, "ARG_OF_PERICENTER": 108.2088, "MEAN_ANOMALY": 251.929, "EPHEMERIS_TYPE": 0, "CLASSIFICATION_TYPE": "U", "NORAD_CAT_ID": 39766, "ELEMENT_SET_NO": 999, "REV_AT_EPOCH": 62271, "BSTAR": 0.00058642782, "MEAN_MOTION_DOT": 4.329e-05, "MEAN_MOTION_DDOT": 0}, "tle": {"line1": "1 39766U 14029A   25337.95070205  .00004329  00000+0  58643-3 0  9991", "line2": "2 39766  97.9237  72.9222 0001527 108.2088 251.9290 14.79455072622716"}}, "geometry": {"type": "Point", "coordinates": [133.08026855054666, -80.83706283199952]}}, {"type": "Feature", "properties": {"norad_id": 40010, "name": "KAZEOSAT 2", "group": "resource", "lat": 14.2147813830106, "lon": -178.77323566266722, "alt_km": 617.8046866634659, "timestamp": "2025-12-04T09:47:37.179735+00:00", "meta": {"OBJECT_NAME": "KAZEOSAT 2", "OBJECT_ID": "2014-033A", "EPOCH": "2025-12-03T22:24:36.750816", "MEAN_MOTION": 14.85146043, "ECCENTRICITY": 0.00072536, "INCLINATION": 97.5511, "RA_OF_ASC_NODE": 182.7027, "ARG_OF_PERICENTER": 239.6442, "MEAN_ANOMALY": 120.4057, "EPHEMERIS_TYPE": 0, "CLASSIFICATION_TYPE": "U", "NORAD_CAT_ID": 40010, "ELEMENT_SET_NO": 999, "REV_AT_EPOCH": 61997, "BSTAR": 0.00018096621, "MEAN_MOTION_DOT": 1.499e-05, "MEAN_MOTION_DDOT": 0}, "tle": {"line1": "1 40010U 14033A   25337.93375869  .00001499  00000+0  18097-3 0  9996", "line2": "2 40010  97.5511 182.7027 0007253 239.6442 120.4057 14.85146043619976"}}, "geometry": {"type": "Point", "coordinates": [-178.77323566266722, 14.2147813830106]}}, {"type": "Feature", "properties": {"norad_id": 40011, "name": "HODOYOSHI-4", "group": "resource", "lat": 32.91093479164534, "lon": 162.78369706864817, "alt_km": 619.2328280658085, "timestamp": "2025-12-04T09:47:37.179746+00:00", "meta": {"OBJECT_NAME": "HODOYOSHI-4", "OBJECT_ID": "2014-033B", "EPOCH": "2025-12-03T22:20:33.044064", "MEAN_MOTION": 14.87429971, "ECCENTRICITY": 0.00226743, "INCLINATION": 97.5415, "RA_OF_ASC_NODE": 167.2489, "ARG_OF_PERICENTER": 230.8603, "MEAN_ANOMALY": 129.0599, "EPHEMERIS_TYPE": 0, "CLASSIFICATION_TYPE": "U", "NORAD_CAT_ID": 40011, "ELEMENT_SET_NO": 999, "REV_AT_EPOCH": 61977, "BSTAR": 0.00039884384, "MEAN_MOTION_DOT": 3.574e-05, "MEAN_MOTION_DDOT": 0}, "tle": {"line1": "1 40011U 14033B   25337.93093801  .00003574  00000+0  39884-3 0  9993", "line2": "2 40011  97.5415 167.2489 0022674 230.8603 129.0599 14.87429971619776"}}, "geometry": {"type": "Point", "coordinates": [162.78369706864817, 32.91093479164534]}}, {"type": "Feature", "properties": {"norad_id": 40013, "name": "DEIMOS-2", "group": "resource", "lat": 25.743425848023605, "lon": -149.21273817366895, "alt_km": 587.78660649433, "timestamp": "2025-12-04T09:47:37.179756+00:00", "meta": {"OBJECT_NAME": "DEIMOS-2", "OBJECT_ID": "2014-033D", "EPOCH": "2025-12-03T22:25:02.783136", "MEAN_MOTION": 14.92908119, "ECCENTRICITY": 8.315e-05, "INCLINATION": 97.6072, "RA_OF_ASC_NODE": 214.024, "ARG_OF_PERICENTER": 89.3491, "MEAN_ANOMALY": 270.7824, "EPHEMERIS_TYPE": 0, "CLASSIFICATION_TYPE": "U", "NORAD_CAT_ID": 40013, "ELEMENT_SET_NO": 999, "REV_AT_EPOCH": 60858, "BSTAR": 0.00048451919, "MEAN_MOTION_DOT": 4.971e-05, "MEAN_MOTION_DDOT": 0}, "tle": {"line1": "1 40013U 14033D   25337.93405999  .00004971  00000+0  48452-3 0  9993", "line2": "2 40013  97.6072 214.0240 0000831  89.3491 270.7824 14.92908119608581"}}, "geometry": {"type": "Point", "coordinates": [-149.21273817366895, 25.743425848023605]}}, {"type": "Feature", "properties": {"norad_id": 40015, "name": "HODOYOSHI-3", "group": "resource", "lat": 38.48792134434632, "lon": 138.49568536894944, "alt_km": 623.3875509646859, "timestamp": "2025-12-04T09:47:37.179767+00:00", "meta": {"OBJECT_NAME": "HODOYOSHI-3", "OBJECT_ID": "2014-033F", "EPOCH": "2025-12-03T22:17:48.802848", "MEAN_MOTION": 14.84758489, "ECCENTRICITY": 0.00318277, "INCLINATION": 97.6194, "RA_OF_ASC_NODE": 144.1475, "ARG_OF_PERICENTER": 278.1142, "MEAN_ANOMALY": 81.6463, "EPHEMERIS_TYPE": 0, "CLASSIFICATION_TYPE": "U", "NORAD_CAT_ID": 40015, "ELEMENT_SET_NO": 999, "REV_AT_EPOCH": 61864, "BSTAR": 0.00041965362, "MEAN_MOTION_DOT": 3.538e-05, "MEAN_MOTION_DDOT": 0}, "tle": {"line1": "1 40015U 14033F   25337.92903707  .00003538  00000+0  41965-3 0  9994", "line2": "2 40015  97.6194 144.1475 0031827 278.1142  81.6463 14.84758489618641"}}, "geometry": {"type": "Point", "coordinates": [138.49568536894944, 38.48792134434632]}}, {"type": "Feature", "properties": {"norad_id": 40053, "name": "SPOT 7", "group": "resource", "lat": 57.344712969743426, "lon": -126.49904227493903, "alt_km": 684.3793914493999, "timestamp": "2025-12-04T09:47:37.179777+00:00", "meta": {"OBJECT_NAME": "SPOT 7", "OBJECT_ID": "2014-034A", "EPOCH": "2025-12-03T23:22:28.479936", "MEAN_MOTION": 14.60716684, "ECCENTRICITY": 0.00015227, "INCLINATION": 98.0918, "RA_OF_ASC_NODE": 40.251, "ARG_OF_PERICENTER": 96.6671, "MEAN_ANOMALY": 263.4703, "EPHEMERIS_TYPE": 0, "CLASSIFICATION_TYPE": "U", "NORAD_CAT_ID": 40053, "ELEMENT_SET_NO": 999, "REV_AT_EPOCH": 60863, "BSTAR": 0.00024841289, "MEAN_MOTION_DOT": 1.165e-05, "MEAN_MOTION_DDOT": 0}, "tle": {"line1": "1 40053U 14034A   25337.97394074  .00001165  00000+0  24841-3 0  9991", "line2": "2 40053  98.0918  40.2510 0001522  96.6671 263.4703 14.60716684608637"}}, "geometry": {"type": "Point", "coordinates": [-126.49904227493903, 57.344712969743426]}}, {"type": "Feature", "properties": {"norad_id": 40072, "name": "SKYSAT-B", "group": "resource", "lat": -19.463607979058736, "lon": -75.34641339066013, "alt_km": 615.2561207303133, "timestamp": "2025-12-04T09:47:37.179788+00:00", "meta": {"OBJECT_NAME": "SKYSAT-B", "OBJECT_ID": "2014-037D", "EPOCH": "2025-12-03T20:57:52.963488", "MEAN_MOTION": 14.87274335, "ECCENTRICITY": 0.00054224, "INCLINATION": 98.3594, "RA_OF_ASC_NODE": 281.1123, "ARG_OF_PERICENTER": 177.5865, "MEAN_ANOMALY": 182.5376, "EPHEMERIS_TYPE": 0, "CLASSIFICATION_TYPE": "U", "NORAD_CAT_ID": 40072, "ELEMENT_SET_NO": 999, "REV_AT_EPOCH": 61692, "BSTAR": 0.00041997697, "MEAN_MOTION_DOT": 3.727e-05, "MEAN_MOTION_DDOT": 0}, "tle": {"line1": "1 40072U 14037D   25337.87352967  .00003727  00000+0  41998-3 0  9997", "line2": "2 40072  98.3594 281.1123 0005422 177.5865 182.5376 14.87274335616923"}}, "geometry": {"type": "Point", "coordinates": [-75.34641339066013, -19.463607979058736]}}]}